[{"OBJECT_NAME":"TK-2","OBJECT_ID":"2022-031A","EPOCH":"2026-03-09T22:51:17.143200","MEAN_MOTION":15.02943491,"ECCENTRICITY":0.00164117,"INCLINATION":97.8366,"RA_OF_ASC_NODE":263.9365,"ARG_OF_PERICENTER":100.3205,"MEAN_ANOMALY":259.9871,"EPHEMERIS_TYPE":0,"CLASSIFICATION_TYPE":"U","NORAD_CAT_ID":52150,"ELEMENT_SET_NO":999,"REV_AT_EPOCH":21555,"BSTAR":0.00040164474,"MEAN_MOTION_DOT":5.349e-5,"MEAN_MOTION_DDOT":0},{"OBJECT_NAME":"STARLINK-5070","OBJECT_ID":"2023-021AC","EPOCH":"2026-03-09T17:33:18.636480","MEAN_MOTION":14.98340861,"ECCENTRICITY":0.00033787,"INCLINATION":70.0003,"RA_OF_ASC_NODE":184.5139,"ARG_OF_PERICENTER":265.7825,"MEAN_ANOMALY":94.2948,"EPHEMERIS_TYPE":0,"CLASSIFICATION_TYPE":"U","NORAD_CAT_ID":55654,"ELEMENT_SET_NO":999,"REV_AT_EPOCH":16879,"BSTAR":-0.000141652,"MEAN_MOTION_DOT":-1.783e-5,"MEAN_MOTION_DDOT":0}]
